C/2020 H7 (Lemmon),e,135.9235,323.5194,82.6780,1405,0.0000187,0.99685380,0.0000,06/02.9510/2020,2000,g 11.0,4.0
# From MPEC 2021-N06
C/2020 H8 (PANSTARRS),e,99.6991,68.4360,128.9222,599.8437,0.0000671,0.99220911,0.0000,06/04.5426/2020,2000,g 10.5,4.0
# From MPEC 2022-ED3
A/2020 H9,e,137.8796,213.1849,312.7997,367.7824,0.0001397,0.99300911,0.0000,12/21.8002/2019,2000,g 18.0,2.0
# From MPEC 2023-HN7
C/2020 H11 (PANSTARRS-Lemmon),h,09/14.7369/2020,151.3951,303.0419,91.4499,1.001947,7.625717,2000,8.5,4.0
# From MPEC 2023-KD6
C/2020 J1 (SONEAR),h,04/18.5991/2021,142.3059,226.6106,341.7179,1.000648,3.351572,2000,8.5,3.2
# From MPEC 2023-UR6
C/2020 K1 (PANSTARRS),e,89.6731,94.3593,213.9855,21536,0.0000003,0.99985729,0.0000,05/09.0848/2023,2000,g  5.5,4.0
# From MPEC 2021-N06
C/2020 K2 (PANSTARRS),h,08/06.1791/2020,91.0130,288.4032,67.3503,1.003077,8.880630,2000,10.8,4.0
# From MPEC 2020-KF9
C/2020 K3 (Leonard),p,06/01.0032/2020,129.0152,64.4924,1.583069,28.3546,2000,14.5,4.0
# From MPEC 2020-L06
C/2020 K4 (PANSTARRS),e,125.5848,264.2280,308.8673,23.97234,0.0083973,0.92689704,11.2510,11/04.0/2023,2000,g 16.5,4.0
# From MPEC 2021-R75
C/2020 K5 (PANSTARRS),h,06/05.3268/2021,67.0970,86.1554,249.6214,1.001280,1.537473,2000,11.0,4.0
# From MPEC 2023-N01
C/2020 K6 (Rankin),h,09/15.7935/2021,103.6470,291.5671,44.3365,1.003605,5.868718,2000,8.0,4.0
# From MPEC 2023-A50
C/2020 K7 (PANSTARRS),e,32.0434,286.0943,358.2335,97.64823,0.0010214,0.93451565,1.4999,11/04.0/2023,2000,g  8.0,4.0
# From MPEC 2021-P47
C/2020 K8 (Catalina-ATLAS),h,09/15.0270/2020,31.4515,181.5227,259.9548,1.000210,0.471415,2000,15.0,3.2
# From MPEC 2021-BE3
P/2020 K9 (Lemmon-PANSTARRS),e,23.2064,166.3106,197.0427,4.204067,0.1143404,0.32107261,113.7199,11/04.0/2023,2000,g 12.5,4.0
# From MPEC 2023-C45
P/2020 M1 (PANSTARRS),e,8.5342,142.6079,72.6414,5.316548,0.0804006,0.47319718,113.3856,11/04.0/2023,2000,g 14.5,4.0
# From MPEC 2022-H30
C/2020 M3 (ATLAS),e,23.4687,71.1879,328.5510,27.16506,0.0069613,0.95328096,7.6853,11/04.0/2023,2000,g 14.5,4.0
# From MPEC 2023-N01
A/2020 M4,h,11/24.0528/2020,160.1221,348.6236,104.6109,1.001059,5.948917,2000,14.5,2.0
# From MPC xxxxx
P/2020 MK4 (PANSTARRS),e,6.7919,0.7097,97.0645,6.212567,0.0636499,0.01266222,276.1142,11/04.0/2023,2000,g  8.0,4.0
# From MPEC 2023-FK0
C/2020 M5 (ATLAS),h,08/19.8625/2021,93.2120,352.0826,126.2834,1.000354,3.001670,2000,9.0,4.0
# From MPEC 2022-GA9
C/2020 N1 (PANSTARRS),h,03/12.5125/2021,29.7294,279.9051,186.7675,1.000536,1.317530,2000,12.5,4.0
# From MPEC 2021-P47
C/2020 N2 (ATLAS),e,61.0374,257.1530,331.2588,101.4875,0.0009640,0.98233225,0.0000,08/23.5822/2020,2000,g 16.0,3.2
# From MPEC 2023-R20
C/2020 O2 (Amaral),h,08/28.3218/2021,71.7620,256.7826,10.2848,1.001171,4.861958,2000,8.0,3.2
# From MPEC 2023-C45
P/2020 O3 (PANSTARRS),e,8.4444,266.8184,81.5936,4.647370,0.0983769,0.10287798,99.2090,11/04.0/2023,2000,g 12.0,4.0
# From MPEC 2021-BE3
C/2020 P1 (NEOWISE),h,10/20.6313/2020,45.1638,53.4768,8.8934,1.000346,0.340613,2000,14.0,3.2
# From MPEC 2023-O39
C/2020 P3 (ATLAS),h,04/21.7132/2021,61.8881,19.4668,82.2901,1.002157,6.812848,2000,6.0,4.0
# From MPEC 2022-PB4
C/2020 PV6 (PANSTARRS),e,128.2135,329.1482,71.3674,42.05752,0.0036136,0.94545282,2.7784,11/04.0/2023,2000,g 10.0,4.0
# From MPEC 2022-L66
C/2020 Q1 (Borisov),e,42.9434,52.3986,9.9590,61.48152,0.0020445,0.97859419,0.0000,08/14.8772/2020,2000,g 14.0,4.0
# From MPEC 2023-CD7
C/2020 Q2 (PANSTARRS),e,3.3358,179.8242,118.2829,10.63225,0.0284293,0.49090871,39.0996,11/04.0/2023,2000,g 12.0,3.2
# From MPEC 2022-X67
C/2020 R2 (PANSTARRS),e,53.2281,195.0947,211.8203,418.6050,0.0001151,0.98878671,0.0000,02/25.0865/2022,2000,g  9.0,4.0
# From MPEC 2022-K19
C/2020 R4 (ATLAS),e,164.4424,323.2672,46.6531,99.65853,0.0009907,0.98970974,0.0000,03/02.2966/2021,2000,g 13.5,4.0
# From MPEC 2023-C45
P/2020 R5 (PANSTARRS),e,11.4425,272.9593,82.6869,4.989162,0.0884428,0.31423429,110.8672,11/04.0/2023,2000,g  9.5,6.0
# From MPEC 2021-Y10
C/2020 R6 (Rankin),e,82.8184,12.1818,271.9965,306.2698,0.0001839,0.98976141,0.0000,09/08.0432/2019,2000,g 11.0,4.0
# From MPEC 2023-TM6
C/2020 R7 (ATLAS),h,09/16.2446/2022,114.9006,268.2915,347.8391,1.000254,2.955776,2000,7.0,3.2
# From MPEC 2021-BE3
P/2020 S1 (PANSTARRS),e,13.7251,129.5200,255.0181,5.995777,0.0671330,0.50767517,68.4993,11/04.0/2023,2000,g 14.0,4.0
# From MPEC 2022-ST7
C/2020 S2 (PANSTARRS),e,22.4041,197.6929,202.3406,10.23166,0.0301152,0.82819567,31.5215,11/04.0/2023,2000,g 17.0,4.0
# From MPEC 2022-C56
C/2020 S3 (Erasmus),e,20.0171,222.5985,350.0774,148.2060,0.0005463,0.99732856,0.0000,12/11.7725/2020,2000,g 13.5,3.2
# From MPEC 2023-O39
C/2020 S4 (PANSTARRS),h,02/09.2505/2023,20.5677,117.7138,20.9969,1.001623,3.369687,2000,8.5,3.2
# From MPEC 2021-BE3
P/2020 S5 (PANSTARRS),e,12.3470,316.0600,53.2055,4.055401,0.1206850,0.33828166,142.6309,11/04.0/2023,2000,g 14.5,4.0
# From MPEC 2021-BE3
P/2020 S7 (PANSTARRS),e,16.0852,328.0932,40.5748,5.032563,0.0873012,0.41049761,94.3038,11/04.0/2023,2000,g 14.5,4.0
# From MPEC 2021-P47
C/2020 S8 (Lemmon),e,108.5275,24.0679,160.2395,256.3548,0.0002401,0.99079457,0.0000,04/10.7618/2021,2000,g 12.5,4.0
# From MPEC 2022-TD3
C/2020 T2 (Palomar),e,27.8375,83.0618,150.4504,299.0076,0.0001906,0.99311481,0.0000,07/10.8272/2021,2000,g 11.0,3.2
# From MPEC 2021-N06
P/2020 T3 (PANSTARRS),e,7.2982,73.9940,357.0388,3.516724,0.1494503,0.59229778,151.9776,11/04.0/2023,2000,g 18.0,3.2
# From MPEC 2021-N06
C/2020 T4 (PANSTARRS),h,07/05.4144/2021,83.8519,50.6196,79.5955,1.000286,2.191030,2000,13.0,3.2
# From MPEC 2021-BE3
C/2020 T5 (Lemmon),e,66.5481,237.8319,90.3520,709.8350,0.0000521,0.99733355,0.0000,10/09.0655/2020,2000,g 16.0,4.0
# From MPEC 2021-N06
P/2020 U2 (PANSTARRS),e,6.4205,342.8876,84.6513,3.777938,0.1342214,0.51130039,139.9451,11/04.0/2023,2000,g 18.0,4.0
# From MPEC 2021-W31
C/2020 U3 (Rankin),e,30.1496,282.6634,124.3461,66.94445,0.0017994,0.96596859,1.8007,11/04.0/2023,2000,g 15.0,4.0
# From MPEC 2023-UR6
C/2020 U4 (PANSTARRS),h,04/09.3427/2022,167.0186,120.3505,70.0543,1.000318,5.358930,2000,7.0,4.0
# From MPEC 2023-SQ0
C/2020 U5 (PANSTARRS),e,97.2813,107.3210,75.4408,3731,0.0000043,0.99899311,0.0000,04/27.9861/2022,2000,g  8.0,4.0
# From MPEC 2023-UR6
C/2020 V2 (ZTF),h,05/08.4837/2023,131.6115,212.3708,162.3964,1.000988,2.227588,2000,4.9,4.0
# From MPEC 2023-D72
P/2020 V3 (PANSTARRS),e,23.0328,198.2529,249.4534,8.391510,0.0405456,0.25736113,40.3969,11/04.0/2023,2000,g  8.3,4.0
# From MPEC 2023-KD6
P/2020 V4 (Rankin),e,14.2445,203.4824,257.0685,9.375917,0.0343308,0.45085141,28.7790,11/04.0/2023,2000,g  9.0,4.0
# From MPEC 2021-BE3
P/2020 W1 (Rankin),e,10.7835,124.3951,265.1440,7.218489,0.0508200,0.26631038,66.2362,11/04.0/2023,2000,g 10.0,4.0
# From MPEC 2021-BE3
C/2020 W5 (Lemmon),h,11/30.3233/2020,88.6055,75.4781,24.5081,1.001249,3.365628,2000,15.0,4.0
# From MPEC 2023-SQ0
P/2020 WJ5 (Lemmon),e,22.2918,177.8044,338.0939,6.015088,0.0668099,0.17147467,57.2457,11/04.0/2023,2000,g  9.0,4.0
# From MPEC 2021-P47
P/2020 X1 (ATLAS),e,31.6877,56.0453,323.4209,4.532113,0.1021534,0.36535092,122.6861,11/04.0/2023,2000,g 13.0,4.0
# From MPEC 2023-R20
C/2020 X2 (ATLAS),e,18.1847,105.4011,347.4068,16.47487,0.0147391,0.76770023,15.9574,11/04.0/2023,2000,g 10.6,4.0
# From MPEC 2021-S45
C/2020 X4 (Leonard),e,80.6225,161.9057,140.3170,40.80383,0.0037814,0.87198370,4.0950,11/04.0/2023,2000,g  9.0,4.0
# From MPEC 2023-UR6
C/2020 Y2 (ATLAS),e,101.2483,26.5268,266.3950,5093,0.0000027,0.99938310,0.0000,06/18.6299/2022,2000,g  6.5,4.0
# From MPEC 2021-R75
C/2020 Y3 (ATLAS),e,83.1037,191.4330,341.9170,140.7626,0.0005902,0.98583040,0.0000,12/03.2802/2020,2000,g 13.5,4.0
# From MPEC 2023-CD7
C/2021 A1 (Leonard),h,01/03.3107/2022,132.7330,255.9043,225.1310,1.000066,0.616074,2000,8.5,4.0
# From MPEC 2022-F14
C/2021 A2 (NEOWISE),e,107.0001,125.1666,338.7696,229.7873,0.0002830,0.99385460,0.0000,01/22.3189/2021,2000,g 13.5,4.0
# From MPEC 2022-ED3
C/2021 A4 (NEOWISE),e,111.5504,307.1078,204.7149,42.39027,0.0035711,0.97291808,0.0000,03/19.6264/2021,2000,g 16.0,4.0
# From MPEC 2021-BE3
P/2021 A5 (PANSTARRS),e,18.1857,328.8326,61.3320,3.047591,0.1852546,0.13993560,201.1600,11/04.0/2023,2000,g 15.0,4.0
# From MPEC 2023-O39
C/2021 A6 (PANSTARRS),e,75.5949,164.0680,351.6182,8723,0.0000012,0.99909146,0.0000,05/03.0052/2021,2000,g  7.0,4.0
# From MPEC 2022-M88
C/2021 A7 (NEOWISE),e,78.1610,154.4868,355.9919,1972,0.0000113,0.99900322,0.0000,07/15.1512/2021,2000,g 10.0,4.0
# From MPEC 2023-SQ0
C/2021 A9 (PANSTARRS),h,12/01.8656/2023,158.0145,314.8364,211.4709,1.001397,7.760008,2000,6.0,4.0
# From MPEC 2021-N06
C/2021 A10 (NEOWISE),e,51.8956,188.6476,82.3912,88.45944,0.0011846,0.98572972,0.0000,03/14.9924/2021,2000,g 19.0,4.0
# From MPEC 2022-L66
C/2021 B2 (PANSTARRS),e,38.0819,120.5153,334.9843,371.9426,0.0001374,0.99324758,0.0000,05/04.4955/2021,2000,g 14.0,4.0
# From MPEC 2021-N06
C/2021 B3 (NEOWISE),e,119.4770,67.2783,293.5321,34.34542,0.0048967,0.93706306,4.7434,11/04.0/2023,2000,g 13.5,4.0
# From MPEC 2023-KD6
C/2021 C1 (Rankin),e,143.0441,186.8899,336.1914,4801,0.0000030,0.99927598,0.0000,12/06.7716/2020,2000,g 11.5,4.0
# From MPEC 2021-U31
P/2021 C2 (PANSTARRS),e,21.9388,66.4572,78.7020,9.535207,0.0334741,0.48757056,32.9200,11/04.0/2023,2000,g 12.0,4.0
# From MPEC 2021-N06
C/2021 C3 (Catalina),e,122.1680,181.9183,357.0446,61.42698,0.0020472,0.96298601,2.0370,11/04.0/2023,2000,g 14.0,4.0
# From MPEC 2022-M88
C/2021 C4 (ATLAS),e,132.8514,194.2744,320.1609,29132,0.0000002,0.99984554,0.0000,01/16.9235/2021,2000,g  9.0,4.0
# From MPEC 2023-R20
C/2021 C5 (PANSTARRS),e,50.7846,323.6768,270.9215,1981,0.0000112,0.99836359,0.0000,02/11.0459/2023,2000,g  9.0,4.0
# From MPEC 2022-YB4
C/2021 C6 (Lemmon),h,11/12.9450/2021,164.6096,332.3115,203.8072,1.000101,3.278081,2000,12.0,4.0
# From MPEC 2022-F14
C/2021 D1 (SWAN),e,31.4227,311.2742,72.2704,101.0413,0.0009704,0.99106027,0.0000,02/27.7658/2021,2000,g 13.0,4.0
# From MPEC 2023-J29
